NORAD_CAT_ID,OBJECT_NAME,OBJECT_TYPE,EPOCH,MEAN_MOTION,ECCENTRICITY,INCLINATION,RA_OF_ASC_NODE,ARG_OF_PERICENTER,MEAN_ANOMALY,BSTAR,MEAN_MOTION_DOT,MEAN_MOTION_DDOT,TLE_LINE0,TLE_LINE1,TLE_LINE2,SEMIMAJOR_AXIS,PERIOD,APOGEE,PERIGEE,DECAYED
56776.0,STARLINK-6274,PAYLOAD,2023-12-12 06:00:00,15.16281273,0.000321,69.9996,228.5837,269.4588,150.6625,-0.053318,-0.00955448,0.0,0 STARLINK-6274,1 56776U 23078K   23346.25001157 -.00955448  00000-0 -53318-1 0  9998,2 56776  69.9996 228.5837 0003210 269.4588 150.6625 15.16281273 30828,6895.228,94.969,519.307,514.88,0.0
56776.0,STARLINK-6274,PAYLOAD,2023-12-12 14:00:01,15.15578403,0.0003232,69.9998,227.7202,263.6138,175.1111,-0.048863,-0.00864812,0.0,0 STARLINK-6274,1 56776U 23078K   23346.58334491 -.00864812  00000-0 -48863-1 0  9997,2 56776  69.9998 227.7202 0003232 263.6138 175.1111 15.15578403  6017,6897.36,95.013,521.454,516.996,0.0
56776.0,STARLINK-6274,PAYLOAD,2023-12-12 22:00:00,15.14956688,0.0003229,69.9997,226.8576,267.1831,189.3454,-0.053519,-0.00925845,0.0,0 STARLINK-6274,1 56776U 23078K   23346.91667824 -.00925845  00000-0 -53519-1 0  9991,2 56776  69.9997 226.8576 0003229 267.1831 189.3454 15.14956688 30923,6899.247,95.052,523.34,518.884,0.0
56776.0,STARLINK-6274,PAYLOAD,2023-12-13 00:00:00,15.14777688,0.00031,69.9996,226.642,267.7946,283.0679,-0.051971,-0.00896694,0.0,0 STARLINK-6274,1 56776U 23078K   23347.00001157 -.00896694  00000-0 -51971-1 0  9992,2 56776  69.9996 226.6420 0003100 267.7946 283.0679 15.14777688  5956,6899.791,95.063,523.794,519.517,0.0
56776.0,STARLINK-6274,PAYLOAD,2023-12-13 14:00:01,15.13626255,0.0003143,69.9994,225.1348,263.7336,226.0672,-0.05208,-0.00871657,0.0,0 STARLINK-6274,1 56776U 23078K   23347.58334491 -.00871657  00000-0 -52080-1 0  9999,2 56776  69.9994 225.1348 0003143 263.7336 226.0672 15.13626255  6013,6903.289,95.136,527.324,522.985,0.0
56776.0,STARLINK-6274,PAYLOAD,2023-12-13 22:00:00,15.12995914,0.0003164,69.9992,224.2747,267.4085,237.8526,-0.056174,-0.00919895,0.0,0 STARLINK-6274,1 56776U 23078K   23347.91667824 -.00919895  00000-0 -56174-1 0  9990,2 56776  69.9992 224.2747 0003164 267.4085 237.8526 15.12995914  5948,6905.207,95.175,529.256,524.887,0.0
56776.0,STARLINK-6274,PAYLOAD,2023-12-14 06:00:00,15.12369488,0.0003042,69.9988,223.4153,268.9958,250.9343,-0.059904,-0.00960548,0.0,0 STARLINK-6274,1 56776U 23078K   23348.25001157 -.00960548  00000-0 -59904-1 0  9994,2 56776  69.9988 223.4153 0003042 268.9958 250.9343 15.12369488 31139,6907.113,95.215,531.079,526.877,0.0
56776.0,STARLINK-6274,PAYLOAD,2023-12-14 14:00:01,15.11673115,0.0003102,69.999,222.5571,263.0977,270.7388,-0.055374,-0.00877027,0.0,0 STARLINK-6274,1 56776U 23078K   23348.58334491 -.00877027  00000-0 -55374-1 0  9996,2 56776  69.9990 222.5571 0003102 263.0977 270.7388 15.11673115  5909,6909.234,95.259,533.242,528.956,0.0
56776.0,STARLINK-6274,PAYLOAD,2023-12-14 20:00:01,15.11222331,0.0003201,69.999,221.9138,267.2188,186.5196,-0.061058,-0.00949161,0.0,0 STARLINK-6274,1 56776U 23078K   23348.83334491 -.00949161  00000-0 -61058-1 0  9999,2 56776  69.9990 221.9138 0003201 267.2188 186.5196 15.11222331 31215,6910.608,95.287,534.685,530.261,0.0
56776.0,STARLINK-6274,PAYLOAD,2023-12-14 22:00:01,15.11035841,0.0003127,69.9988,221.6995,267.4019,279.6143,-0.058904,-0.00913687,0.0,0 STARLINK-6274,1 56776U 23078K   23348.91668981 -.00913687  00000-0 -58904-1 0  9992,2 56776  69.9988 221.6995 0003127 267.4019 279.6143 15.11035841  5958,6911.177,95.299,535.203,530.881,0.0
56776.0,STARLINK-6274,PAYLOAD,2023-12-15 14:00:01,15.09718523,0.0003104,69.9987,219.9871,262.681,308.1511,-0.058665,-0.0087992,0.0,0 STARLINK-6274,1 56776U 23078K   23349.58334491 -.00879920  00000-0 -58665-1 0  9997,2 56776  69.9987 219.9871 0003104 262.6810 308.1511 15.09718523 31331,6915.196,95.382,539.208,534.915,0.0
56776.0,STARLINK-6274,PAYLOAD,2023-12-15 22:00:00,15.09076348,0.0003148,69.9985,219.132,267.4881,314.115,-0.061862,-0.00909328,0.0,0 STARLINK-6274,1 56776U 23078K   23349.91667824 -.00909328  00000-0 -61862-1 0  9992,2 56776  69.9985 219.1320 0003148 267.4881 314.1150 15.09076348  5989,6917.158,95.423,541.201,536.846,0.0
56776.0,STARLINK-6274,PAYLOAD,2023-12-16 06:00:02,15.08456799,0.0003068,69.9983,218.2778,267.9507,323.6893,-0.067109,-0.00965169,0.0,0 STARLINK-6274,1 56776U 23078K   23350.25002315 -.00965169  00000-0 -67109-1 0  9994,2 56776  69.9983 218.2778 0003068 267.9507 323.6893 15.08456799 31434,6919.052,95.462,543.04,538.794,0.0
56776.0,STARLINK-6274,PAYLOAD,2023-12-16 14:00:01,15.07763413,0.0003107,69.9985,217.4247,262.7751,338.0123,-0.062055,-0.00881993,0.0,0 STARLINK-6274,1 56776U 23078K   23350.58334491 -.00881993  00000-0 -62055-1 0  9990,2 56776  69.9985 217.4247 0003107 262.7751 338.0123 15.07763413  5997,6921.173,95.506,545.188,540.888,0.0
56776.0,STARLINK-6274,PAYLOAD,2023-12-16 22:00:00,15.07118619,0.0003161,69.9985,216.5722,268.0153,341.197,-0.065065,-0.00906746,0.0,0 STARLINK-6274,1 56776U 23078K   23350.91667824 -.00906746  00000-0 -65065-1 0  9994,2 56776  69.9985 216.5722 0003161 268.0153 341.1970 15.07118619 31536,6923.147,95.547,547.2,542.824,0.0
56776.0,STARLINK-6274,PAYLOAD,2023-12-17 14:00:01,15.05809533,0.0003147,69.9985,214.8699,262.9745,0.7901,-0.065762,-0.00886068,0.0,0 STARLINK-6274,1 56776U 23078K   23351.58335648 -.00886068  00000-0 -65762-1 0  9992,2 56776  69.9985 214.8699 0003147 262.9745   0.7901 15.05809533  5975,6927.159,95.63,551.204,546.844,0.0
56776.0,STARLINK-6274,PAYLOAD,2023-12-17 22:00:00,15.05161424,0.0003188,69.9986,214.0199,268.5706,1.2106,-0.068523,-0.00905735,0.0,0 STARLINK-6274,1 56776U 23078K   23351.91667824 -.00905735  00000-0 -68523-1 0  9994,2 56776  69.9986 214.0199 0003188 268.5706   1.2106 15.05161424 31687,6929.147,95.671,553.221,548.803,0.0
56776.0,STARLINK-6274,PAYLOAD,2023-12-18 14:00:01,15.03856842,0.0003172,69.9987,212.3226,263.1865,16.3889,-0.069785,-0.00891744,0.0,0 STARLINK-6274,1 56776U 23078K   23352.58334491 -.00891744  00000-0 -69785-1 0  9994,2 56776  69.9987 212.3226 0003172 263.1865  16.3889 15.03856842  5836,6933.154,95.754,557.218,552.82,0.0
56776.0,STARLINK-6274,PAYLOAD,2023-12-18 22:00:01,15.0320543,0.00032,69.9989,211.4751,268.7808,14.592,-0.072243,-0.00906106,0.0,0 STARLINK-6274,1 56776U 23078K   23352.91668981 -.00906106  00000-0 -72243-1 0  9997,2 56776  69.9989 211.4751 0003200 268.7808  14.5920 15.03205430 31837,6935.157,95.795,559.241,554.803,0.0
56776.0,STARLINK-6274,PAYLOAD,2023-12-19 14:00:01,15.01911389,0.0002971,69.999,209.783,261.7891,26.6128,-0.07462,-0.00904371,0.0,0 STARLINK-6274,1 56776U 23078K   23353.58334491 -.00904371  00000-0 -74620-1 0  9990,2 56776  69.9990 209.7830 0002971 261.7891  26.6128 15.01911389 31936,6939.14,95.878,563.066,558.943,0.0
56776.0,STARLINK-6274,PAYLOAD,2023-12-20 06:00:00,15.00625931,0.0003241,69.9989,208.0942,274.1124,16.2721,-0.082523,-0.00973316,0.0,0 STARLINK-6274,1 56776U 23078K   23354.25001157 -.00973316  00000-0 -82523-1 0  9991,2 56776  69.9989 208.0942 0003241 274.1124  16.2721 15.00625931 32038,6943.102,95.96,567.217,562.717,0.0
56776.0,STARLINK-6274,PAYLOAD,2023-12-20 14:00:01,14.99886051,0.0003224,69.9993,207.2511,270.2024,20.0111,-0.063241,-0.0073728,0.0,0 STARLINK-6274,1 56776U 23078K   23354.58334491 -.00737280  00000-0 -63241-1 0  9991,2 56776  69.9993 207.2511 0003224 270.2024  20.0111 14.99886051 32083,6945.385,96.007,569.489,565.011,0.0
56776.0,STARLINK-6274,PAYLOAD,2023-12-20 22:00:00,14.99257816,0.0003323,69.9993,206.4089,276.4245,12.8274,0.0026146,0.00032009,0.0,0 STARLINK-6274,1 56776U 23078K   23354.91667824  .00032009  00000-0  26146-2 0  9996,2 56776  69.9993 206.4089 0003323 276.4245  12.8274 14.99257816 32133,6947.325,96.048,571.499,566.882,0.0
56776.0,STARLINK-6274,PAYLOAD,2023-12-21 14:00:01,14.99283592,0.000337,69.9996,204.7254,270.861,15.62,0.0013693,0.00016694,0.0,0 STARLINK-6274,1 56776U 23078K   23355.58334491  .00016694  00000-0  13693-2 0  9996,2 56776  69.9996 204.7254 0003370 270.8610  15.6200 14.99283592  6059,6947.246,96.046,571.452,566.769,0.0
56776.0,STARLINK-6274,PAYLOAD,2023-12-21 22:00:01,14.99277543,0.0003401,69.9996,203.8836,276.1174,9.0647,0.0022764,0.00027855,0.0,0 STARLINK-6274,1 56776U 23078K   23355.91668981  .00027855  00000-0  22764-2 0  9997,2 56776  69.9996 203.8836 0003401 276.1174   9.0647 14.99277543 32289,6947.264,96.046,571.492,566.766,0.0
56776.0,STARLINK-6274,PAYLOAD,2023-12-22 00:00:00,14.99271806,0.0003409,69.9995,203.6731,276.7437,98.0305,0.0034912,0.00042855,0.0,0 STARLINK-6274,1 56776U 23078K   23356.00001157  .00042855  00000-0  34912-2 0  9999,2 56776  69.9995 203.6731 0003409 276.7437  98.0305 14.99271806  5764,6947.282,96.047,571.515,566.779,0.0
56776.0,STARLINK-6274,PAYLOAD,2023-12-22 14:00:01,14.99302505,0.0003383,69.9997,202.2003,270.5824,11.7952,0.0010957,0.00013339,0.0,0 STARLINK-6274,1 56776U 23078K   23356.58334491  .00013339  00000-0  10957-2 0  9990,2 56776  69.9997 202.2003 0003383 270.5824  11.7952 14.99302505 32385,6947.187,96.045,571.402,566.702,0.0
56776.0,STARLINK-6274,PAYLOAD,2023-12-22 22:00:00,14.99286855,0.0003376,69.9995,201.3585,276.7323,4.3056,0.0025421,0.00031139,0.0,0 STARLINK-6274,1 56776U 23078K   23356.91667824  .00031139  00000-0  25421-2 0  9996,2 56776  69.9995 201.3585 0003376 276.7323   4.3056 14.99286855  5902,6947.235,96.046,571.446,566.755,0.0
56776.0,STARLINK-6274,PAYLOAD,2023-12-23 06:00:00,14.99322188,0.0003327,69.9992,200.5168,275.2306,4.4491,-0.0031904,-0.00038939,0.0,0 STARLINK-6274,1 56776U 23078K   23357.25001157 -.00038939  00000-0 -31904-2 0  9995,2 56776  69.9992 200.5168 0003327 275.2306   4.4491 14.99322188 32485,6947.126,96.043,571.303,566.68,0.0
56776.0,STARLINK-6274,PAYLOAD,2023-12-23 14:00:01,14.99318198,0.0003327,69.9995,199.6753,271.2355,7.0938,0.00044095,5.308e-05,0.0,0 STARLINK-6274,1 56776U 23078K   23357.58334491  .00005308  00000-0  44095-3 0  9999,2 56776  69.9995 199.6753 0003327 271.2355   7.0938 14.99318198  5634,6947.139,96.044,571.315,566.692,0.0
